Number,Name,Country,Region,Type,Activity Evidence,Last Known Eruption,Latitude,Longitude,Elevation (Meters),Dominant Rock Type,Tectonic Setting
211040,Stromboli,Italy,Mediterranean and Western Asia,Stratovolcano,Eruption Observed,2016,38.789,15.213,924,Trachyandesite / Basaltic Trachyandesite,Subduction Zone / Continental Crust (>25 km)
211060,Etna,Italy,Mediterranean and Western Asia,Stratovolcano(es),Eruption Observed,2016,37.734,15.004000000000001,3330,Trachybasalt / Tephrite Basanite,Subduction Zone / Continental Crust (>25 km)
221010,"Tair, Jebel at",Yemen,Africa and Red Sea,Stratovolcano,Eruption Observed,2008,15.55,41.83,244,Trachybasalt / Tephrite Basanite,Rift Zone / Oceanic Crust (< 15 km)
221020,Zubair Group,Yemen,Africa and Red Sea,Shield,Eruption Observed,2013,15.05,42.18,191,Basalt / Picro-Basalt,Rift Zone / Oceanic Crust (< 15 km)
221041,Dallol,Ethiopia,Africa and Red Sea,Explosion crater(s),Eruption Observed,2011,14.242,40.3,-48,Basalt / Picro-Basalt,Rift Zone / Intermediate Crust (15-25 km)
221060,Alu-Dalafilla,Ethiopia,Africa and Red Sea,Fissure vent(s),Eruption Observed,2008,13.793,40.553000000000004,578,Basalt / Picro-Basalt,Rift Zone / Intermediate Crust (15-25 km)
221080,Erta Ale,Ethiopia,Africa and Red Sea,Shield,Eruption Observed,2016,13.6,40.67,613,Basalt / Picro-Basalt,Rift Zone / Intermediate Crust (15-25 km)
221101,Nabro,Eritrea,Africa and Red Sea,Stratovolcano,Eruption Observed,2012,13.37,41.7,2218,Trachyte / Trachydacite,Rift Zone / Intermediate Crust (15-25 km)
221113,Dabbahu,Ethiopia,Africa and Red Sea,Stratovolcano,Eruption Observed,2005,12.595,40.48,1401,Basalt / Picro-Basalt,Rift Zone / Intermediate Crust (15-25 km)
221115,Manda Hararo,Ethiopia,Africa and Red Sea,Shield(s),Eruption Observed,2009,12.17,40.82,600,Basalt / Picro-Basalt,Rift Zone / Intermediate Crust (15-25 km)
221126,Ardoukoba,Djibouti,Africa and Red Sea,Fissure vent(s),Eruption Observed,1978,11.58,42.47,298,Basalt / Picro-Basalt,Rift Zone / Intermediate Crust (15-25 km)
222120,"Lengai, Ol Doinyo",Tanzania,Africa and Red Sea,Stratovolcano,Eruption Observed,2013,-2.764,35.914,2962,Foidite,Rift Zone / Continental Crust (>25 km)
223020,Nyamuragira,DR Congo,Africa and Red Sea,Shield,Eruption Observed,2015,-1.4080000000000001,29.2,3058,Trachybasalt / Tephrite Basanite,Rift Zone / Continental Crust (>25 km)
223030,Nyiragongo,DR Congo,Africa and Red Sea,Stratovolcano,Eruption Observed,2016,-1.52,29.25,3470,Foidite,Rift Zone / Continental Crust (>25 km)
224010,Cameroon,Cameroon,Africa and Red Sea,Stratovolcano,Eruption Observed,2000,4.203,9.17,4095,Trachybasalt / Tephrite Basanite,Intraplate / Continental Crust (>25 km)
233010,Karthala,Comoros,Middle East and Indian Ocean,Shield,Eruption Observed,2007,-11.75,43.38,2361,Basalt / Picro-Basalt,Intraplate / Oceanic Crust (< 15 km)
233020,"Fournaise, Piton de la",France,Middle East and Indian Ocean,Shield,Eruption Observed,2016,-21.244,55.708,2632,Basalt / Picro-Basalt,Intraplate / Oceanic Crust (< 15 km)
234000,Boomerang Seamount,France,Middle East and Indian Ocean,Submarine,Eruption Dated,1995,-37.721,77.825,-650,Basalt / Picro-Basalt,Rift Zone / Oceanic Crust (< 15 km)
234010,Heard,Australia,Middle East and Indian Ocean,Stratovolcano,Eruption Observed,2016,-53.106,73.513,2745,Trachybasalt / Tephrite Basanite,Intraplate / Oceanic Crust (< 15 km)
234011,McDonald Islands,Australia,Middle East and Indian Ocean,Complex,Eruption Observed,2005,-53.03,72.6,230,Phonolite,Intraplate / Oceanic Crust (< 15 km)
234070,Marion Island,South Africa,Middle East and Indian Ocean,Shield(s),Eruption Observed,2004,-46.9,37.75,1230,Basalt / Picro-Basalt,Rift Zone / Oceanic Crust (< 15 km)
241040,White Island,New Zealand,New Zealand to Fiji,Stratovolcano(es),Eruption Observed,2016,-37.52,177.18,321,Andesite / Basaltic Andesite,Subduction Zone / Continental Crust (>25 km)
241050,Okataina,New Zealand,New Zealand to Fiji,Lava dome(s),Eruption Observed,1981,-38.12,176.5,1111,Rhyolite,Subduction Zone / Continental Crust (>25 km)
241080,Tongariro,New Zealand,New Zealand to Fiji,Stratovolcano(es),Eruption Observed,2012,-39.157,175.632,1978,Andesite / Basaltic Andesite,Subduction Zone / Continental Crust (>25 km)
241100,Ruapehu,New Zealand,New Zealand to Fiji,Stratovolcano,Eruption Observed,2007,-39.28,175.57,2797,Andesite / Basaltic Andesite,Subduction Zone / Continental Crust (>25 km)
241130,Rumble III,New Zealand,New Zealand to Fiji,Submarine,Eruption Observed,2008,-35.745,178.47799999999998,-220,Andesite / Basaltic Andesite,Subduction Zone / Oceanic Crust (< 15 km)
242005,Havre Seamount,New Zealand,New Zealand to Fiji,Submarine,Eruption Observed,2012,-31.08,-179.033,-897,Basalt / Picro-Basalt,Subduction Zone / Oceanic Crust (< 15 km)
242030,Raoul Island,New Zealand,New Zealand to Fiji,Stratovolcano,Eruption Observed,2006,-29.27,-177.92,516,Andesite / Basaltic Andesite,Subduction Zone / Oceanic Crust (< 15 km)
242050,Monowai,New Zealand,New Zealand to Fiji,Submarine,Eruption Observed,2012,-25.886999999999997,-177.188,-132,Basalt / Picro-Basalt,Subduction Zone / Oceanic Crust (< 15 km)
243030,Unnamed,Tonga,New Zealand to Fiji,Submarine,Eruption Observed,1999,-20.85,-175.53,-13,Basalt / Picro-Basalt,Subduction Zone / Oceanic Crust (< 15 km)
243040,Hunga Tonga-Hunga Ha'apai,Tonga,New Zealand to Fiji,Submarine,Eruption Observed,2015,-20.535999999999998,-175.382,114,Andesite / Basaltic Andesite,Subduction Zone / Oceanic Crust (< 15 km)
243060,Tofua,Tonga,New Zealand to Fiji,Caldera,Eruption Observed,2014,-19.75,-175.07,515,Andesite / Basaltic Andesite,Subduction Zone / Oceanic Crust (< 15 km)
243070,Metis Shoal,Tonga,New Zealand to Fiji,Submarine,Eruption Observed,1995,-19.18,-174.87,43,Dacite,Subduction Zone / Oceanic Crust (< 15 km)
243080,Home Reef,Tonga,New Zealand to Fiji,Submarine,Eruption Observed,2006,-18.992,-174.775,-10,Dacite,Subduction Zone / Oceanic Crust (< 15 km)
243091,Unnamed,Tonga,New Zealand to Fiji,Submarine,Eruption Observed,2001,-18.325,-174.365,-40,Dacite,Subduction Zone / Oceanic Crust (< 15 km)
243102,Curacoa,Tonga,New Zealand to Fiji,Submarine,Eruption Observed,1979,-15.62,-173.67,-33,Dacite,Subduction Zone / Oceanic Crust (< 15 km)
243110,Niuafo'ou,Tonga,New Zealand to Fiji,Shield,Eruption Observed,1985,-15.6,-175.63,260,Basalt / Picro-Basalt,Subduction Zone / Oceanic Crust (< 15 km)
243120,Tafu-Maka,Tonga,New Zealand to Fiji,Submarine,Eruption Observed,2008,-15.37,-174.23,-1400,Basalt / Picro-Basalt,Rift Zone / Oceanic Crust (< 15 km)
243130,West Mata,Tonga,New Zealand to Fiji,Submarine,Eruption Observed,2009,-15.1,-173.75,-1174,Andesite / Basaltic Andesite,Subduction Zone / Oceanic Crust (< 15 km)
244000,Vailulu'u,United States,New Zealand to Fiji,Submarine,Eruption Observed,2003,-14.215,-169.058,-592,Basalt / Picro-Basalt,Subduction Zone / Oceanic Crust (< 15 km)
250030,Unnamed,Papua New Guinea,Melanesia and Australia,Submarine,Eruption Dated,1972,-3.03,147.78,-1300,Basalt / Picro-Basalt,Rift Zone / Continental Crust (>25 km)
251020,Manam,Papua New Guinea,Melanesia and Australia,Stratovolcano,Eruption Observed,2016,-4.08,145.037,1807,Basalt / Picro-Basalt,Subduction Zone / Continental Crust (>25 km)
251030,Karkar,Papua New Guinea,Melanesia and Australia,Stratovolcano,Eruption Observed,2014,-4.649,145.964,1839,Andesite / Basaltic Andesite,Subduction Zone / Continental Crust (>25 km)
251050,Long Island,Papua New Guinea,Melanesia and Australia,Complex,Eruption Observed,1993,-5.358,147.12,1280,Andesite / Basaltic Andesite,Subduction Zone / Continental Crust (>25 km)
251070,Ritter Island,Papua New Guinea,Melanesia and Australia,Stratovolcano,Eruption Observed,2007,-5.519,148.115,75,Basalt / Picro-Basalt,Subduction Zone / Continental Crust (>25 km)
252010,Langila,Papua New Guinea,Melanesia and Australia,Complex,Eruption Observed,2016,-5.525,148.42,1330,Basalt / Picro-Basalt,Subduction Zone / Continental Crust (>25 km)
252070,Krummel-Garbuna-Welcker,Papua New Guinea,Melanesia and Australia,Stratovolcano(es),Eruption Observed,2008,-5.416,150.02700000000002,564,Andesite / Basaltic Andesite,Subduction Zone / Continental Crust (>25 km)
252080,Witori,Papua New Guinea,Melanesia and Australia,Caldera,Eruption Observed,2012,-5.5760000000000005,150.516,724,Dacite,Subduction Zone / Continental Crust (>25 km)
252120,Ulawun,Papua New Guinea,Melanesia and Australia,Stratovolcano,Eruption Observed,2016,-5.05,151.33,2334,Basalt / Picro-Basalt,Subduction Zone / Continental Crust (>25 km)
252140,Rabaul,Papua New Guinea,Melanesia and Australia,Pyroclastic shield,Eruption Observed,2014,-4.271,152.203,688,Dacite,Subduction Zone / Continental Crust (>25 km)
255020,Bagana,Papua New Guinea,Melanesia and Australia,Lava cone,Eruption Observed,2016,-6.1370000000000005,155.196,1855,Andesite / Basaltic Andesite,Subduction Zone / Crust Thickness Unknown
255060,Kavachi,Solomon Islands,Melanesia and Australia,Submarine,Eruption Observed,2007,-9.02,157.95,-20,Andesite / Basaltic Andesite,Subduction Zone / Crust Thickness Unknown
256010,Tinakula,Solomon Islands,Melanesia and Australia,Stratovolcano,Eruption Observed,2012,-10.38,165.8,851,Andesite / Basaltic Andesite,Subduction Zone / Crust Thickness Unknown
257010,Suretamatai,Vanuatu,Melanesia and Australia,Complex,Eruption Observed,1966,-13.8,167.47,921,Andesite / Basaltic Andesite,Subduction Zone / Intermediate Crust (15-25 km)
257020,Gaua,Vanuatu,Melanesia and Australia,Stratovolcano,Eruption Observed,2011,-14.27,167.5,797,Andesite / Basaltic Andesite,Subduction Zone / Intermediate Crust (15-25 km)
257030,Aoba,Vanuatu,Melanesia and Australia,Shield,Eruption Observed,2011,-15.4,167.83,1496,Basalt / Picro-Basalt,Subduction Zone / Intermediate Crust (15-25 km)
257040,Ambrym,Vanuatu,Melanesia and Australia,Pyroclastic shield,Eruption Observed,2016,-16.25,168.12,1334,Basalt / Picro-Basalt,Subduction Zone / Intermediate Crust (15-25 km)
257050,Lopevi,Vanuatu,Melanesia and Australia,Stratovolcano,Eruption Observed,2007,-16.507,168.34599999999998,1413,Basalt / Picro-Basalt,Subduction Zone / Intermediate Crust (15-25 km)
257060,Epi,Vanuatu,Melanesia and Australia,Stratovolcano(es),Eruption Observed,2004,-16.68,168.37,833,Basalt / Picro-Basalt,Subduction Zone / Intermediate Crust (15-25 km)
257070,Kuwae,Vanuatu,Melanesia and Australia,Caldera,Eruption Observed,1974,-16.829,168.53599999999997,-2,Basalt / Picro-Basalt,Subduction Zone / Intermediate Crust (15-25 km)
257100,Yasur,Vanuatu,Melanesia and Australia,Stratovolcano,Eruption Observed,2016,-19.53,169.442,361,Andesite / Basaltic Andesite,Subduction Zone / Intermediate Crust (15-25 km)
258001,Eastern Gemini Seamount,France,Melanesia and Australia,Submarine,Eruption Observed,1996,-20.98,170.28,-80,Basalt / Picro-Basalt,Rift Zone / Oceanic Crust (< 15 km)
260010,Barren Island,India,Indonesia,Stratovolcano,Eruption Observed,2016,12.277999999999999,93.85799999999999,354,Basalt / Picro-Basalt,Subduction Zone / Continental Crust (>25 km)
261030,Peuet Sague,Indonesia,Indonesia,Complex,Eruption Observed,2000,4.914,96.329,2801,Andesite / Basaltic Andesite,Subduction Zone / Continental Crust (>25 km)
261080,Sinabung,Indonesia,Indonesia,Stratovolcano,Eruption Observed,2016,3.17,98.39200000000001,2460,Andesite / Basaltic Andesite,Subduction Zone / Continental Crust (>25 km)
261120,Sorikmarapi,Indonesia,Indonesia,Stratovolcano,Eruption Observed,1986,0.6859999999999999,99.539,2145,Andesite / Basaltic Andesite,Subduction Zone / Continental Crust (>25 km)
261140,Marapi,Indonesia,Indonesia,Complex,Eruption Observed,2015,-0.381,100.473,2891,Andesite / Basaltic Andesite,Subduction Zone / Continental Crust (>25 km)
261160,Talang,Indonesia,Indonesia,Stratovolcano,Eruption Observed,2007,-0.978,100.679,2597,Andesite / Basaltic Andesite,Subduction Zone / Continental Crust (>25 km)
261170,Kerinci,Indonesia,Indonesia,Stratovolcano,Eruption Observed,2016,-1.6969999999999998,101.264,3800,Andesite / Basaltic Andesite,Subduction Zone / Continental Crust (>25 km)
261220,Kaba,Indonesia,Indonesia,Stratovolcano,Eruption Observed,2000,-3.52,102.62,1952,Andesite / Basaltic Andesite,Subduction Zone / Continental Crust (>25 km)
261230,Dempo,Indonesia,Indonesia,Stratovolcano(es),Eruption Observed,2009,-4.03,103.13,3173,Andesite / Basaltic Andesite,Subduction Zone / Continental Crust (>25 km)
262000,Krakatau,Indonesia,Indonesia,Caldera,Eruption Observed,2014,-6.102,105.42299999999999,813,Andesite / Basaltic Andesite,Subduction Zone / Continental Crust (>25 km)
263090,Tangkubanparahu,Indonesia,Indonesia,Stratovolcano,Eruption Observed,2013,-6.77,107.6,2084,Andesite / Basaltic Andesite,Subduction Zone / Continental Crust (>25 km)
263100,Papandayan,Indonesia,Indonesia,Stratovolcano(es),Eruption Observed,2002,-7.32,107.73,2665,Andesite / Basaltic Andesite,Subduction Zone / Continental Crust (>25 km)
263140,Galunggung,Indonesia,Indonesia,Stratovolcano,Eruption Observed,1984,-7.25,108.05799999999999,2168,Basalt / Picro-Basalt,Subduction Zone / Continental Crust (>25 km)
263180,Slamet,Indonesia,Indonesia,Stratovolcano,Eruption Observed,2014,-7.242000000000001,109.208,3428,Basalt / Picro-Basalt,Subduction Zone / Continental Crust (>25 km)
263200,Dieng Volcanic Complex,Indonesia,Indonesia,Complex,Eruption Observed,2009,-7.2,109.92,2565,Andesite / Basaltic Andesite,Subduction Zone / Continental Crust (>25 km)
263210,Sundoro,Indonesia,Indonesia,Stratovolcano,Eruption Observed,1971,-7.3,109.992,3136,Andesite / Basaltic Andesite,Subduction Zone / Continental Crust (>25 km)
263250,Merapi,Indonesia,Indonesia,Stratovolcano,Eruption Observed,2014,-7.542000000000001,110.44200000000001,2968,Andesite / Basaltic Andesite,Subduction Zone / Continental Crust (>25 km)
263280,Kelut,Indonesia,Indonesia,Stratovolcano,Eruption Observed,2014,-7.93,112.30799999999999,1731,Andesite / Basaltic Andesite,Subduction Zone / Continental Crust (>25 km)
263300,Semeru,Indonesia,Indonesia,Stratovolcano,Eruption Observed,2016,-8.107999999999999,112.92,3676,Andesite / Basaltic Andesite,Subduction Zone / Continental Crust (>25 km)
263310,Tengger Caldera,Indonesia,Indonesia,Stratovolcano(es),Eruption Observed,2016,-7.942,112.95,2329,Trachyandesite / Basaltic Trachyandesite,Subduction Zone / Continental Crust (>25 km)
263340,Raung,Indonesia,Indonesia,Stratovolcano,Eruption Observed,2015,-8.119,114.056,3260,Andesite / Basaltic Andesite,Subduction Zone / Continental Crust (>25 km)
263350,Ijen,Indonesia,Indonesia,Stratovolcano(es),Eruption Observed,1999,-8.058,114.242,2769,Andesite / Basaltic Andesite,Subduction Zone / Continental Crust (>25 km)
264010,Batur,Indonesia,Indonesia,Caldera,Eruption Observed,2000,-8.242,115.375,1717,Andesite / Basaltic Andesite,Subduction Zone / Continental Crust (>25 km)
264030,Rinjani,Indonesia,Indonesia,Stratovolcano,Eruption Observed,2016,-8.42,116.47,3726,Andesite / Basaltic Andesite,Subduction Zone / Continental Crust (>25 km)
264040,Tambora,Indonesia,Indonesia,Stratovolcano,Eruption Observed,1967,-8.25,118.0,2850,Trachybasalt / Tephrite Basanite,Subduction Zone / Continental Crust (>25 km)
264050,Sangeang Api,Indonesia,Indonesia,Complex,Eruption Observed,2015,-8.2,119.07,1949,Trachybasalt / Tephrite Basanite,Subduction Zone / Continental Crust (>25 km)
264071,Ranakah,Indonesia,Indonesia,Lava dome(s),Eruption Observed,1991,-8.62,120.52,2350,Andesite / Basaltic Andesite,Subduction Zone / Continental Crust (>25 km)
264090,Inielika,Indonesia,Indonesia,Complex,Eruption Observed,2001,-8.73,120.98,1559,Andesite / Basaltic Andesite,Subduction Zone / Crust Thickness Unknown
264100,Ebulobo,Indonesia,Indonesia,Stratovolcano,Eruption Observed,1969,-8.82,121.18,2124,Andesite / Basaltic Andesite,Subduction Zone / Crust Thickness Unknown
264110,Iya,Indonesia,Indonesia,Stratovolcano,Eruption Observed,1969,-8.897,121.645,637,Basalt / Picro-Basalt,Subduction Zone / Crust Thickness Unknown
264140,Kelimutu,Indonesia,Indonesia,Complex,Eruption Observed,1968,-8.77,121.82,1639,Andesite / Basaltic Andesite,Subduction Zone / Crust Thickness Unknown
264150,Paluweh,Indonesia,Indonesia,Stratovolcano,Eruption Observed,2014,-8.32,121.708,875,Andesite / Basaltic Andesite,Subduction Zone / Crust Thickness Unknown
264160,Egon,Indonesia,Indonesia,Stratovolcano,Eruption Observed,2008,-8.676,122.455,1661,Andesite / Basaltic Andesite,Subduction Zone / Crust Thickness Unknown
264180,Lewotobi,Indonesia,Indonesia,Stratovolcano(es),Eruption Observed,2003,-8.542,122.775,1703,Andesite / Basaltic Andesite,Subduction Zone / Crust Thickness Unknown
264200,Leroboleng,Indonesia,Indonesia,Complex,Eruption Observed,2003,-8.365,122.833,1095,Andesite / Basaltic Andesite,Subduction Zone / Crust Thickness Unknown
264220,Iliboleng,Indonesia,Indonesia,Stratovolcano,Eruption Observed,1993,-8.342,123.258,1659,Basalt / Picro-Basalt,Subduction Zone / Crust Thickness Unknown
264230,Lewotolo,Indonesia,Indonesia,Stratovolcano,Eruption Observed,2012,-8.272,123.505,1423,Andesite / Basaltic Andesite,Subduction Zone / Crust Thickness Unknown
264250,Iliwerung,Indonesia,Indonesia,Complex,Eruption Observed,2013,-8.53,123.57,1018,Basalt / Picro-Basalt,Subduction Zone / Crust Thickness Unknown
264260,"Tara, Batu",Indonesia,Indonesia,Stratovolcano,Eruption Observed,2015,-7.791,123.585,633,Trachybasalt / Tephrite Basanite,Subduction Zone / Oceanic Crust (< 15 km)
264270,Sirung,Indonesia,Indonesia,Complex,Eruption Observed,2015,-8.508,124.13,862,Andesite / Basaltic Andesite,Subduction Zone / Crust Thickness Unknown
265060,Nila,Indonesia,Indonesia,Stratovolcano,Eruption Observed,1968,-6.73,129.5,781,Andesite / Basaltic Andesite,Subduction Zone / Oceanic Crust (< 15 km)
265090,Banda Api,Indonesia,Indonesia,Caldera,Eruption Observed,1988,-4.523,129.881,596,Dacite,Subduction Zone / Oceanic Crust (< 15 km)
266010,Colo,Indonesia,Indonesia,Stratovolcano,Eruption Observed,1983,-0.162,121.601,404,Trachyandesite / Basaltic Trachyandesite,Subduction Zone / Continental Crust (>25 km)
266020,Ambang,Indonesia,Indonesia,Complex,Eruption Observed,2005,0.75,124.42,1795,Andesite / Basaltic Andesite,Subduction Zone / Continental Crust (>25 km)
266030,Soputan,Indonesia,Indonesia,Stratovolcano,Eruption Observed,2016,1.112,124.73700000000001,1785,Andesite / Basaltic Andesite,Subduction Zone / Continental Crust (>25 km)
266100,Lokon-Empung,Indonesia,Indonesia,Stratovolcano(es),Eruption Observed,2015,1.358,124.792,1580,Basalt / Picro-Basalt,Subduction Zone / Continental Crust (>25 km)
266110,Mahawu,Indonesia,Indonesia,Stratovolcano,Eruption Observed,1977,1.3519999999999999,124.865,1299,Andesite / Basaltic Andesite,Subduction Zone / Continental Crust (>25 km)
267010,Ruang,Indonesia,Indonesia,Stratovolcano,Eruption Observed,2002,2.3,125.37,725,Andesite / Basaltic Andesite,Subduction Zone / Oceanic Crust (< 15 km)
267020,Karangetang,Indonesia,Indonesia,Stratovolcano,Eruption Observed,2016,2.78,125.4,1784,Andesite / Basaltic Andesite,Subduction Zone / Oceanic Crust (< 15 km)
267040,Awu,Indonesia,Indonesia,Stratovolcano,Eruption Observed,2004,3.67,125.5,1320,Andesite / Basaltic Andesite,Subduction Zone / Oceanic Crust (< 15 km)
268010,Dukono,Indonesia,Indonesia,Complex,Eruption Observed,2016,1.693,127.89399999999999,1229,Andesite / Basaltic Andesite,Subduction Zone / Oceanic Crust (< 15 km)
268030,Ibu,Indonesia,Indonesia,Stratovolcano,Eruption Observed,2016,1.4880000000000002,127.63,1325,Andesite / Basaltic Andesite,Subduction Zone / Oceanic Crust (< 15 km)
268040,Gamkonora,Indonesia,Indonesia,Stratovolcano,Eruption Observed,2007,1.38,127.53,1635,Andesite / Basaltic Andesite,Subduction Zone / Oceanic Crust (< 15 km)
268060,Gamalama,Indonesia,Indonesia,Stratovolcano(es),Eruption Observed,2016,0.8,127.33,1715,Andesite / Basaltic Andesite,Subduction Zone / Oceanic Crust (< 15 km)
268070,Makian,Indonesia,Indonesia,Stratovolcano,Eruption Observed,1988,0.32,127.4,1357,Andesite / Basaltic Andesite,Subduction Zone / Oceanic Crust (< 15 km)
272020,Kanlaon,Philippines,Philippines and SE Asia,Stratovolcano,Eruption Observed,2016,10.412,123.132,2435,Andesite / Basaltic Andesite,Subduction Zone / Continental Crust (>25 km)
273010,Bulusan,Philippines,Philippines and SE Asia,Stratovolcano(es),Eruption Observed,2016,12.77,124.05,1565,Andesite / Basaltic Andesite,Subduction Zone / Continental Crust (>25 km)
273030,Mayon,Philippines,Philippines and SE Asia,Stratovolcano,Eruption Observed,2014,13.257,123.685,2462,Andesite / Basaltic Andesite,Subduction Zone / Continental Crust (>25 km)
273070,Taal,Philippines,Philippines and SE Asia,Caldera,Eruption Observed,1977,14.002,120.993,311,Andesite / Basaltic Andesite,Subduction Zone / Continental Crust (>25 km)
273083,Pinatubo,Philippines,Philippines and SE Asia,Stratovolcano,Eruption Observed,1993,15.13,120.35,1486,Dacite,Subduction Zone / Continental Crust (>25 km)
274020,Didicas,Philippines,Philippines and SE Asia,Compound,Eruption Observed,1978,19.077,122.20200000000001,228,Andesite / Basaltic Andesite,Subduction Zone / Crust Thickness Unknown
282020,Io-Torishima,Japan,"Japan, Taiwan, Marianas",Complex,Eruption Observed,1968,27.881,128.22299999999998,212,Andesite / Basaltic Andesite,Subduction Zone / Oceanic Crust (< 15 km)
282030,Suwanosejima,Japan,"Japan, Taiwan, Marianas",Stratovolcano(es),Eruption Observed,2016,29.638,129.714,796,Andesite / Basaltic Andesite,Subduction Zone / Oceanic Crust (< 15 km)
282050,Kuchinoerabujima,Japan,"Japan, Taiwan, Marianas",Stratovolcano(es),Eruption Observed,2015,30.443,130.217,657,Andesite / Basaltic Andesite,Subduction Zone / Oceanic Crust (< 15 km)
282060,Kikai,Japan,"Japan, Taiwan, Marianas",Caldera,Eruption Observed,2013,30.789,130.308,704,Rhyolite,Subduction Zone / Oceanic Crust (< 15 km)
282080,Aira,Japan,"Japan, Taiwan, Marianas",Caldera,Eruption Observed,2016,31.593000000000004,130.657,1117,Andesite / Basaltic Andesite,Subduction Zone / Continental Crust (>25 km)
282090,Kirishimayama,Japan,"Japan, Taiwan, Marianas",Shield,Eruption Observed,2011,31.934,130.862,1700,Andesite / Basaltic Andesite,Subduction Zone / Continental Crust (>25 km)
282100,Unzendake,Japan,"Japan, Taiwan, Marianas",Complex,Eruption Observed,1996,32.760999999999996,130.299,1483,Andesite / Basaltic Andesite,Subduction Zone / Continental Crust (>25 km)
282110,Asosan,Japan,"Japan, Taiwan, Marianas",Caldera,Eruption Observed,2016,32.884,131.10399999999998,1592,Andesite / Basaltic Andesite,Subduction Zone / Continental Crust (>25 km)
282120,Kujusan,Japan,"Japan, Taiwan, Marianas",Stratovolcano(es),Eruption Observed,1996,33.086,131.249,1791,Andesite / Basaltic Andesite,Subduction Zone / Continental Crust (>25 km)
283010,Izu-Tobu,Japan,"Japan, Taiwan, Marianas",Pyroclastic cone(s),Eruption Observed,1989,34.9,139.09799999999998,1406,Basalt / Picro-Basalt,Subduction Zone / Continental Crust (>25 km)
283020,Hakoneyama,Japan,"Japan, Taiwan, Marianas",Complex,Eruption Dated,2015,35.233000000000004,139.02100000000002,1438,Andesite / Basaltic Andesite,Subduction Zone / Continental Crust (>25 km)
283040,Ontakesan,Japan,"Japan, Taiwan, Marianas",Complex,Eruption Observed,2014,35.893,137.48,3067,Andesite / Basaltic Andesite,Subduction Zone / Continental Crust (>25 km)
283070,Yakedake,Japan,"Japan, Taiwan, Marianas",Stratovolcano(es),Eruption Observed,1995,36.227,137.58700000000002,2455,Andesite / Basaltic Andesite,Subduction Zone / Continental Crust (>25 km)
283090,Niigata-Yakeyama,Japan,"Japan, Taiwan, Marianas",Lava dome,Eruption Observed,1998,36.921,138.036,2400,Andesite / Basaltic Andesite,Subduction Zone / Continental Crust (>25 km)
283110,Asamayama,Japan,"Japan, Taiwan, Marianas",Complex,Eruption Observed,2015,36.406,138.523,2568,Andesite / Basaltic Andesite,Subduction Zone / Continental Crust (>25 km)
283120,Kusatsu-Shiranesan,Japan,"Japan, Taiwan, Marianas",Stratovolcano(es),Eruption Observed,1983,36.618,138.528,2165,Andesite / Basaltic Andesite,Subduction Zone / Continental Crust (>25 km)
283170,Adatarayama,Japan,"Japan, Taiwan, Marianas",Stratovolcano(es),Eruption Observed,1996,37.647,140.281,1728,Andesite / Basaltic Andesite,Subduction Zone / Continental Crust (>25 km)
283180,Azumayama,Japan,"Japan, Taiwan, Marianas",Stratovolcano(es),Eruption Observed,1977,37.735,140.244,1949,Andesite / Basaltic Andesite,Subduction Zone / Continental Crust (>25 km)
283220,Chokaisan,Japan,"Japan, Taiwan, Marianas",Stratovolcano(es),Eruption Observed,1974,39.099000000000004,140.049,2236,Andesite / Basaltic Andesite,Subduction Zone / Continental Crust (>25 km)
283230,Akita-Komagatake,Japan,"Japan, Taiwan, Marianas",Stratovolcano(es),Eruption Observed,1971,39.760999999999996,140.799,1637,Basalt / Picro-Basalt,Subduction Zone / Continental Crust (>25 km)
283260,Akita-Yakeyama,Japan,"Japan, Taiwan, Marianas",Stratovolcano,Eruption Observed,1997,39.964,140.757,1366,Andesite / Basaltic Andesite,Subduction Zone / Continental Crust (>25 km)
284010,Izu-Oshima,Japan,"Japan, Taiwan, Marianas",Stratovolcano,Eruption Observed,1990,34.724000000000004,139.394,758,Basalt / Picro-Basalt,Subduction Zone / Oceanic Crust (< 15 km)
284040,Miyakejima,Japan,"Japan, Taiwan, Marianas",Stratovolcano,Eruption Observed,2010,34.094,139.526,775,Basalt / Picro-Basalt,Subduction Zone / Oceanic Crust (< 15 km)
284070,Myojinsho,Japan,"Japan, Taiwan, Marianas",Submarine,Eruption Observed,1970,31.888,139.918,11,Dacite,Subduction Zone / Oceanic Crust (< 15 km)
284090,Izu-Torishima,Japan,"Japan, Taiwan, Marianas",Stratovolcano,Eruption Observed,2002,30.484,140.303,394,Basalt / Picro-Basalt,Subduction Zone / Oceanic Crust (< 15 km)
284096,Nishinoshima,Japan,"Japan, Taiwan, Marianas",Caldera,Eruption Observed,2015,27.247,140.874,25,Andesite / Basaltic Andesite,Subduction Zone / Crust Thickness Unknown
284100,Kaitoku Seamount,Japan,"Japan, Taiwan, Marianas",Submarine,Eruption Observed,1984,26.06,140.933,-173,Basalt / Picro-Basalt,Subduction Zone / Crust Thickness Unknown
284120,Ioto,Japan,"Japan, Taiwan, Marianas",Caldera,Eruption Observed,2012,24.750999999999998,141.289,169,Trachyandesite / Basaltic Trachyandesite,Subduction Zone / Crust Thickness Unknown
284130,Fukutoku-Oka-no-Ba,Japan,"Japan, Taiwan, Marianas",Submarine,Eruption Observed,2010,24.285,141.481,-29,Trachyandesite / Basaltic Trachyandesite,Subduction Zone / Crust Thickness Unknown
284131,Minami Hiyoshi,Japan,"Japan, Taiwan, Marianas",Submarine,Eruption Observed,1975,23.5,141.935,-107,Trachyandesite / Basaltic Trachyandesite,Subduction Zone / Crust Thickness Unknown
284133,Fukujin,United States,"Japan, Taiwan, Marianas",Submarine,Eruption Observed,1974,21.93,143.47,-217,Andesite / Basaltic Andesite,Subduction Zone / Crust Thickness Unknown
284140,Farallon de Pajaros,United States,"Japan, Taiwan, Marianas",Stratovolcano,Eruption Observed,1967,20.538,144.89600000000002,360,Andesite / Basaltic Andesite,Subduction Zone / Crust Thickness Unknown
284141,Ahyi,United States,"Japan, Taiwan, Marianas",Submarine,Eruption Dated,2014,20.42,145.03,-75,Andesite / Basaltic Andesite,Subduction Zone / Crust Thickness Unknown
284142,Supply Reef,United States,"Japan, Taiwan, Marianas",Submarine,Eruption Dated,1989,20.13,145.1,-8,Andesite / Basaltic Andesite,Subduction Zone / Crust Thickness Unknown
284170,Pagan,United States,"Japan, Taiwan, Marianas",Stratovolcano(es),Eruption Observed,2012,18.13,145.8,570,Basalt / Picro-Basalt,Subduction Zone / Crust Thickness Unknown
284193,South Sarigan Seamount,United States,"Japan, Taiwan, Marianas",Submarine,Eruption Observed,2010,16.58,145.78,-184,Basalt / Picro-Basalt,Subduction Zone / Crust Thickness Unknown
284200,Anatahan,United States,"Japan, Taiwan, Marianas",Stratovolcano,Eruption Observed,2008,16.35,145.67,790,Andesite / Basaltic Andesite,Subduction Zone / Crust Thickness Unknown
284202,Ruby,United States,"Japan, Taiwan, Marianas",Submarine,Eruption Observed,1995,15.62,145.57,-230,Basalt / Picro-Basalt,Subduction Zone / Crust Thickness Unknown
284211,NW Rota-1,United States,"Japan, Taiwan, Marianas",Submarine,Eruption Observed,2010,14.600999999999999,144.775,-517,Basalt / Picro-Basalt,Subduction Zone / Crust Thickness Unknown
284305,Mariana Back-Arc Segment at 15.5°N,United States,"Japan, Taiwan, Marianas",Submarine,Eruption Observed,2015,15.405999999999999,144.506,-4100,Basalt / Picro-Basalt,Subduction Zone / Oceanic Crust (< 15 km)
285020,Hokkaido-Komagatake,Japan,"Japan, Taiwan, Marianas",Stratovolcano,Eruption Observed,2000,42.063,140.67700000000002,1131,Andesite / Basaltic Andesite,Subduction Zone / Continental Crust (>25 km)
285030,Toya,Japan,"Japan, Taiwan, Marianas",Stratovolcano,Eruption Observed,2001,42.544,140.839,733,Basalt / Picro-Basalt,Subduction Zone / Continental Crust (>25 km)
285040,Shikotsu,Japan,"Japan, Taiwan, Marianas",Caldera,Eruption Observed,1981,42.688,141.38,1320,Andesite / Basaltic Andesite,Subduction Zone / Continental Crust (>25 km)
285050,Tokachidake,Japan,"Japan, Taiwan, Marianas",Stratovolcano(es),Eruption Observed,2004,43.418,142.686,2077,Andesite / Basaltic Andesite,Subduction Zone / Continental Crust (>25 km)
285070,Akan,Japan,"Japan, Taiwan, Marianas",Caldera,Eruption Observed,2008,43.38399999999999,144.013,1499,Andesite / Basaltic Andesite,Subduction Zone / Continental Crust (>25 km)
290030,Chachadake [Tiatia],Japan - administered by Russia,Kuril Islands,Stratovolcano,Eruption Observed,1981,44.353,146.252,1822,Basalt / Picro-Basalt,Subduction Zone / Intermediate Crust (15-25 km)
290070,Etorofu-Yakeyama [Grozny Group],Japan - administered by Russia,Kuril Islands,Complex(es),Eruption Observed,2013,45.012,147.871,1158,Andesite / Basaltic Andesite,Subduction Zone / Intermediate Crust (15-25 km)
290100,Moyorodake [Medvezhia],Japan - administered by Russia,Kuril Islands,Stratovolcano,Eruption Observed,1999,45.388999999999996,148.838,1124,Andesite / Basaltic Andesite,Subduction Zone / Intermediate Crust (15-25 km)
290120,Kolokol Group,Russia,Kuril Islands,Stratovolcano,Eruption Observed,1973,46.042,150.083,1328,Andesite / Basaltic Andesite,Subduction Zone / Intermediate Crust (15-25 km)
290150,Chirpoi,Russia,Kuril Islands,Caldera,Eruption Observed,2016,46.525,150.875,742,Andesite / Basaltic Andesite,Subduction Zone / Oceanic Crust (< 15 km)
290160,Unnamed,Russia,Kuril Islands,Submarine,Eruption Dated,1972,46.47,151.28,-502,Basalt / Picro-Basalt,Subduction Zone / Oceanic Crust (< 15 km)
290240,Sarychev Peak,Russia,Kuril Islands,Stratovolcano,Eruption Observed,2009,48.092,153.2,1496,Andesite / Basaltic Andesite,Subduction Zone / Intermediate Crust (15-25 km)
290260,Chirinkotan,Russia,Kuril Islands,Stratovolcano,Eruption Observed,2016,48.98,153.48,724,Andesite / Basaltic Andesite,Subduction Zone / Intermediate Crust (15-25 km)
290270,Ekarma,Russia,Kuril Islands,Stratovolcano,Eruption Observed,2010,48.958,153.93,1170,Andesite / Basaltic Andesite,Subduction Zone / Intermediate Crust (15-25 km)
290290,Sinarka,Russia,Kuril Islands,Stratovolcano,Eruption Observed,2014,48.875,154.175,934,Andesite / Basaltic Andesite,Subduction Zone / Intermediate Crust (15-25 km)
290360,Chikurachki,Russia,Kuril Islands,Stratovolcano(es),Eruption Observed,2016,50.324,155.461,1781,Basalt / Picro-Basalt,Subduction Zone / Continental Crust (>25 km)
290380,Ebeko,Russia,Kuril Islands,Stratovolcano,Eruption Observed,2016,50.68600000000001,156.014,1103,Andesite / Basaltic Andesite,Subduction Zone / Continental Crust (>25 km)
290390,Alaid,Russia,Kuril Islands,Stratovolcano,Eruption Observed,2016,50.861000000000004,155.565,2285,Basalt / Picro-Basalt,Subduction Zone / Continental Crust (>25 km)
300060,Mutnovsky,Russia,Kamchatka and Mainland Asia,Complex,Eruption Observed,2000,52.449,158.196,2288,Basalt / Picro-Basalt,Subduction Zone / Continental Crust (>25 km)
300070,Gorely,Russia,Kamchatka and Mainland Asia,Caldera,Eruption Observed,2010,52.559,158.03,1799,Basalt / Picro-Basalt,Subduction Zone / Continental Crust (>25 km)
300090,Koryaksky,Russia,Kamchatka and Mainland Asia,Stratovolcano,Eruption Observed,2009,53.321000000000005,158.71200000000002,3430,Andesite / Basaltic Andesite,Subduction Zone / Continental Crust (>25 km)
300100,Avachinsky,Russia,Kamchatka and Mainland Asia,Stratovolcano,Eruption Observed,2001,53.256,158.836,2717,Andesite / Basaltic Andesite,Subduction Zone / Continental Crust (>25 km)
300120,Zhupanovsky,Russia,Kamchatka and Mainland Asia,Compound,Eruption Observed,2016,53.589,159.15,2899,Andesite / Basaltic Andesite,Subduction Zone / Continental Crust (>25 km)
300125,Akademia Nauk,Russia,Kamchatka and Mainland Asia,Stratovolcano(es),Eruption Observed,1996,53.98,159.45,1180,Andesite / Basaltic Andesite,Subduction Zone / Continental Crust (>25 km)
300130,Karymsky,Russia,Kamchatka and Mainland Asia,Stratovolcano,Eruption Observed,2016,54.049,159.44299999999998,1513,Andesite / Basaltic Andesite,Subduction Zone / Continental Crust (>25 km)
300230,Kizimen,Russia,Kamchatka and Mainland Asia,Stratovolcano,Eruption Observed,2013,55.131,160.32,2334,Andesite / Basaltic Andesite,Subduction Zone / Continental Crust (>25 km)
300240,Tolbachik,Russia,Kamchatka and Mainland Asia,Shield,Eruption Observed,2013,55.832,160.326,3611,Basalt / Picro-Basalt,Subduction Zone / Continental Crust (>25 km)
300250,Bezymianny,Russia,Kamchatka and Mainland Asia,Stratovolcano,Eruption Observed,2016,55.972,160.595,2882,Andesite / Basaltic Andesite,Subduction Zone / Continental Crust (>25 km)
300260,Klyuchevskoy,Russia,Kamchatka and Mainland Asia,Stratovolcano,Eruption Observed,2016,56.056000000000004,160.642,4754,Basalt / Picro-Basalt,Subduction Zone / Continental Crust (>25 km)
300270,Sheveluch,Russia,Kamchatka and Mainland Asia,Stratovolcano,Eruption Observed,2016,56.653,161.36,3283,Andesite / Basaltic Andesite,Subduction Zone / Continental Crust (>25 km)
311020,Kiska,United States,Alaska,Stratovolcano,Eruption Observed,1990,52.103,177.602,1220,Andesite / Basaltic Andesite,Subduction Zone / Intermediate Crust (15-25 km)
311060,Semisopochnoi,United States,Alaska,Stratovolcano,Eruption Observed,1987,51.93,179.58,1221,Basalt / Picro-Basalt,Subduction Zone / Intermediate Crust (15-25 km)
311070,Gareloi,United States,Alaska,Stratovolcano,Eruption Observed,1989,51.79,-178.794,1573,Basalt / Picro-Basalt,Subduction Zone / Intermediate Crust (15-25 km)
311110,Kanaga,United States,Alaska,Stratovolcano,Eruption Observed,2012,51.923,-177.168,1307,Andesite / Basaltic Andesite,Subduction Zone / Intermediate Crust (15-25 km)
311120,Great Sitkin,United States,Alaska,Stratovolcano,Eruption Observed,1974,52.076,-176.13,1740,Andesite / Basaltic Andesite,Subduction Zone / Intermediate Crust (15-25 km)
311130,Kasatochi,United States,Alaska,Stratovolcano,Eruption Observed,2008,52.177,-175.50799999999998,314,Basalt / Picro-Basalt,Subduction Zone / Intermediate Crust (15-25 km)
311161,Korovin,United States,Alaska,Stratovolcano(es),Eruption Observed,2007,52.381,-174.166,1518,Basalt / Picro-Basalt,Subduction Zone / Continental Crust (>25 km)
311180,Seguam,United States,Alaska,Stratovolcano(es),Eruption Observed,1993,52.315,-172.51,1054,Andesite / Basaltic Andesite,Subduction Zone / Intermediate Crust (15-25 km)
311190,Amukta,United States,Alaska,Stratovolcano,Eruption Observed,1997,52.5,-171.252,1066,Andesite / Basaltic Andesite,Subduction Zone / Intermediate Crust (15-25 km)
311240,Cleveland,United States,Alaska,Stratovolcano,Eruption Observed,2016,52.825,-169.94400000000002,1730,Andesite / Basaltic Andesite,Subduction Zone / Intermediate Crust (15-25 km)
311290,Okmok,United States,Alaska,Shield,Eruption Observed,2008,53.43,-168.13,1073,Basalt / Picro-Basalt,Subduction Zone / Intermediate Crust (15-25 km)
311300,Bogoslof,United States,Alaska,Submarine,Eruption Observed,1992,53.93,-168.03,150,Trachyandesite / Basaltic Trachyandesite,Subduction Zone / Intermediate Crust (15-25 km)
311310,Makushin,United States,Alaska,Stratovolcano,Eruption Observed,1995,53.891000000000005,-166.923,1800,Andesite / Basaltic Andesite,Subduction Zone / Intermediate Crust (15-25 km)
311320,Akutan,United States,Alaska,Stratovolcano,Eruption Observed,1992,54.13399999999999,-165.986,1303,Basalt / Picro-Basalt,Subduction Zone / Intermediate Crust (15-25 km)
311340,Westdahl,United States,Alaska,Stratovolcano?,Eruption Observed,1992,54.518,-164.65,1654,Basalt / Picro-Basalt,Subduction Zone / Continental Crust (>25 km)
311360,Shishaldin,United States,Alaska,Stratovolcano,Eruption Observed,2015,54.756,-163.97,2857,Basalt / Picro-Basalt,Subduction Zone / Continental Crust (>25 km)
312030,Pavlof,United States,Alaska,Stratovolcano,Eruption Observed,2016,55.417,-161.894,2493,Andesite / Basaltic Andesite,Subduction Zone / Continental Crust (>25 km)
312060,Kupreanof,United States,Alaska,Stratovolcano,Eruption Observed,1987,56.011,-159.797,1895,Andesite / Basaltic Andesite,Subduction Zone / Continental Crust (>25 km)
312070,Veniaminof,United States,Alaska,Stratovolcano,Eruption Observed,2013,56.17,-159.38,2507,Andesite / Basaltic Andesite,Subduction Zone / Continental Crust (>25 km)
312110,Chiginagak,United States,Alaska,Stratovolcano,Eruption Observed,1998,57.135,-156.99,2221,Andesite / Basaltic Andesite,Subduction Zone / Continental Crust (>25 km)
312131,Ukinrek Maars,United States,Alaska,Maar(s),Eruption Observed,1977,57.832,-156.51,91,Basalt / Picro-Basalt,Subduction Zone / Continental Crust (>25 km)
312160,Trident,United States,Alaska,Stratovolcano,Eruption Observed,1974,58.236000000000004,-155.1,1864,Andesite / Basaltic Andesite,Subduction Zone / Continental Crust (>25 km)
312260,Fourpeaked,United States,Alaska,Stratovolcano,Eruption Observed,2006,58.77,-153.672,2105,Andesite / Basaltic Andesite,Subduction Zone / Continental Crust (>25 km)
313010,Augustine,United States,Alaska,Lava dome(s),Eruption Observed,2006,59.363,-153.43,1252,Andesite / Basaltic Andesite,Subduction Zone / Continental Crust (>25 km)
313030,Redoubt,United States,Alaska,Stratovolcano,Eruption Observed,2009,60.485,-152.74200000000002,3108,Andesite / Basaltic Andesite,Subduction Zone / Continental Crust (>25 km)
313040,Spurr,United States,Alaska,Stratovolcano,Eruption Observed,1992,61.299,-152.251,3374,Andesite / Basaltic Andesite,Subduction Zone / Continental Crust (>25 km)
315020,Wrangell,United States,Alaska,Shield,Eruption Observed,2002,62.006,-144.017,4278,Andesite / Basaltic Andesite,Intraplate / Continental Crust (>25 km)
321050,St. Helens,United States,Canada and Western USA,Stratovolcano,Eruption Observed,2008,46.2,-122.18,2549,Dacite,Subduction Zone / Continental Crust (>25 km)
331020,CoAxial Segment,Undersea Features,Hawaii and Pacific Ocean,Submarine,Eruption Observed,1993,46.52,-129.58,-2400,Basalt / Picro-Basalt,Rift Zone / Oceanic Crust (< 15 km)
331021,Axial Seamount,Undersea Features,Hawaii and Pacific Ocean,Submarine,Eruption Observed,2015,45.95,-130.0,-1410,Basalt / Picro-Basalt,Rift Zone / Oceanic Crust (< 15 km)
331030,Cleft Segment,Undersea Features,Hawaii and Pacific Ocean,Submarine,Eruption Observed,1986,44.83,-130.3,-2140,Basalt / Picro-Basalt,Rift Zone / Oceanic Crust (< 15 km)
331031,North Gorda Ridge Segment,Undersea Features,Hawaii and Pacific Ocean,Submarine,Eruption Observed,1996,42.67,-126.78,-3000,Basalt / Picro-Basalt,Rift Zone / Oceanic Crust (< 15 km)
332000,Loihi,United States,Hawaii and Pacific Ocean,Submarine,Eruption Observed,1996,18.92,-155.27,-975,Basalt / Picro-Basalt,Intraplate / Oceanic Crust (< 15 km)
332010,Kilauea,United States,Hawaii and Pacific Ocean,Shield,Eruption Observed,2016,19.421,-155.287,1222,Basalt / Picro-Basalt,Intraplate / Oceanic Crust (< 15 km)
332020,Mauna Loa,United States,Hawaii and Pacific Ocean,Shield,Eruption Observed,1984,19.475,-155.608,4170,Basalt / Picro-Basalt,Intraplate / Oceanic Crust (< 15 km)
333010,Teahitia,France,Hawaii and Pacific Ocean,Submarine,Eruption Dated,1985,-17.564,-148.821,-1743,Trachybasalt / Tephrite Basanite,Intraplate / Oceanic Crust (< 15 km)
333020,Rocard,France,Hawaii and Pacific Ocean,Submarine,Eruption Dated,1972,-17.662,-148.586,-2515,Trachyte / Trachydacite,Intraplate / Oceanic Crust (< 15 km)
333030,Moua Pihaa,France,Hawaii and Pacific Ocean,Submarine,Eruption Dated,1970,-18.325,-148.525,-312,Trachybasalt / Tephrite Basanite,Intraplate / Oceanic Crust (< 15 km)
333060,Macdonald,Undersea Features,Hawaii and Pacific Ocean,Submarine,Eruption Observed,1989,-28.98,-140.25,-39,Basalt / Picro-Basalt,Intraplate / Oceanic Crust (< 15 km)
334040,Unnamed,Undersea Features,Hawaii and Pacific Ocean,Submarine,Eruption Observed,2003,10.73,-103.58,0,Basalt / Picro-Basalt,Intraplate / Oceanic Crust (< 15 km)
334050,Unnamed,Undersea Features,Hawaii and Pacific Ocean,Submarine,Eruption Observed,2006,9.83,-104.3,-2500,Basalt / Picro-Basalt,Rift Zone / Oceanic Crust (< 15 km)
334070,Galapagos Rift,Undersea Features,Hawaii and Pacific Ocean,Submarine,Eruption Observed,1996,0.792,-86.15,-2430,Basalt / Picro-Basalt,Rift Zone / Oceanic Crust (< 15 km)
334100,Unnamed,Undersea Features,Hawaii and Pacific Ocean,Submarine,Eruption Observed,1969,-8.27,-107.95,-2800,Basalt / Picro-Basalt,Rift Zone / Oceanic Crust (< 15 km)
334120,Southern EPR-Segment K,Undersea Features,Hawaii and Pacific Ocean,Submarine,Eruption Observed,1990,-17.436,-113.206,-2566,Basalt / Picro-Basalt,Rift Zone / Oceanic Crust (< 15 km)
341021,Socorro,Mexico,México and Central America,Shield,Eruption Observed,1994,18.78,-110.95,1050,Trachyte / Trachydacite,Rift Zone / Oceanic Crust (< 15 km)
341040,Colima,Mexico,México and Central America,Stratovolcano(es),Eruption Observed,2016,19.514,-103.62,3850,Andesite / Basaltic Andesite,Subduction Zone / Continental Crust (>25 km)
341090,Popocatepetl,Mexico,México and Central America,Stratovolcano(es),Eruption Observed,2016,19.023,-98.62200000000001,5426,Andesite / Basaltic Andesite,Subduction Zone / Continental Crust (>25 km)
341120,"Chichon, El",Mexico,México and Central America,Lava dome(s),Eruption Observed,1982,17.36,-93.228,1150,Trachyandesite / Basaltic Trachyandesite,Subduction Zone / Continental Crust (>25 km)
341130,Tacana,Mexico-Guatemala,México and Central America,Stratovolcano,Eruption Observed,1986,15.132,-92.109,4064,Andesite / Basaltic Andesite,Subduction Zone / Continental Crust (>25 km)
342030,Santa Maria,Guatemala,México and Central America,Stratovolcano,Eruption Observed,2016,14.755999999999998,-91.552,3772,Dacite,Subduction Zone / Continental Crust (>25 km)
342080,Acatenango,Guatemala,México and Central America,Stratovolcano(es),Eruption Observed,1972,14.501,-90.876,3976,Andesite / Basaltic Andesite,Subduction Zone / Continental Crust (>25 km)
342090,Fuego,Guatemala,México and Central America,Stratovolcano(es),Eruption Observed,2016,14.472999999999999,-90.88,3763,Basalt / Picro-Basalt,Subduction Zone / Continental Crust (>25 km)
342110,Pacaya,Guatemala,México and Central America,Complex,Eruption Observed,2016,14.380999999999998,-90.601,2552,Basalt / Picro-Basalt,Subduction Zone / Continental Crust (>25 km)
343020,Santa Ana,El Salvador,México and Central America,Stratovolcano,Eruption Observed,2005,13.853,-89.63,2381,Andesite / Basaltic Andesite,Subduction Zone / Continental Crust (>25 km)
343030,Izalco,El Salvador,México and Central America,Stratovolcano,Eruption Observed,1966,13.812999999999999,-89.633,1950,Andesite / Basaltic Andesite,Subduction Zone / Continental Crust (>25 km)
343100,San Miguel,El Salvador,México and Central America,Stratovolcano,Eruption Observed,2016,13.434000000000001,-88.26899999999999,2130,Andesite / Basaltic Andesite,Subduction Zone / Continental Crust (>25 km)
344020,San Cristobal,Nicaragua,México and Central America,Stratovolcano,Eruption Observed,2016,12.702,-87.00399999999999,1745,Basalt / Picro-Basalt,Subduction Zone / Continental Crust (>25 km)
344040,Telica,Nicaragua,México and Central America,Stratovolcano(es),Eruption Observed,2016,12.602,-86.845,1061,Basalt / Picro-Basalt,Subduction Zone / Continental Crust (>25 km)
344070,"Negro, Cerro",Nicaragua,México and Central America,Pyroclastic cone(s),Eruption Observed,1999,12.505999999999998,-86.70200000000001,728,Basalt / Picro-Basalt,Subduction Zone / Continental Crust (>25 km)
344090,Momotombo,Nicaragua,México and Central America,Stratovolcano,Eruption Observed,2016,12.422,-86.54,1297,Basalt / Picro-Basalt,Subduction Zone / Continental Crust (>25 km)
344100,Masaya,Nicaragua,México and Central America,Caldera,Eruption Observed,2016,11.984000000000002,-86.161,635,Basalt / Picro-Basalt,Subduction Zone / Continental Crust (>25 km)
344120,Concepcion,Nicaragua,México and Central America,Stratovolcano,Eruption Observed,2011,11.538,-85.62200000000001,1700,Andesite / Basaltic Andesite,Subduction Zone / Continental Crust (>25 km)
345020,Rincon de la Vieja,Costa Rica,México and Central America,Complex,Eruption Observed,2014,10.83,-85.324,1916,Andesite / Basaltic Andesite,Subduction Zone / Continental Crust (>25 km)
345033,Arenal,Costa Rica,México and Central America,Stratovolcano,Eruption Observed,2010,10.463,-84.70299999999999,1670,Andesite / Basaltic Andesite,Subduction Zone / Continental Crust (>25 km)
345040,Poas,Costa Rica,México and Central America,Stratovolcano,Eruption Observed,2016,10.2,-84.23299999999999,2708,Andesite / Basaltic Andesite,Subduction Zone / Continental Crust (>25 km)
345060,Irazu,Costa Rica,México and Central America,Stratovolcano,Eruption Observed,1994,9.979,-83.852,3432,Andesite / Basaltic Andesite,Subduction Zone / Continental Crust (>25 km)
345070,Turrialba,Costa Rica,México and Central America,Stratovolcano,Eruption Observed,2016,10.025,-83.76700000000001,3340,Andesite / Basaltic Andesite,Subduction Zone / Continental Crust (>25 km)
351020,"Ruiz, Nevado del",Colombia,South America,Stratovolcano,Eruption Observed,2016,4.8919999999999995,-75.324,5279,Andesite / Basaltic Andesite,Subduction Zone / Continental Crust (>25 km)
351050,"Huila, Nevado del",Colombia,South America,Stratovolcano,Eruption Observed,2012,2.93,-76.03,5364,Andesite / Basaltic Andesite,Subduction Zone / Continental Crust (>25 km)
351060,Purace,Colombia,South America,Stratovolcano(es),Eruption Observed,1977,2.32,-76.4,4650,Andesite / Basaltic Andesite,Subduction Zone / Continental Crust (>25 km)
351080,Galeras,Colombia,South America,Complex,Eruption Observed,2014,1.22,-77.37,4276,Andesite / Basaltic Andesite,Subduction Zone / Continental Crust (>25 km)
352010,Reventador,Ecuador,South America,Stratovolcano,Eruption Observed,2016,-0.077,-77.656,3562,Andesite / Basaltic Andesite,Subduction Zone / Continental Crust (>25 km)
352020,Guagua Pichincha,Ecuador,South America,Stratovolcano,Eruption Observed,2002,-0.171,-78.598,4784,Andesite / Basaltic Andesite,Subduction Zone / Continental Crust (>25 km)
352050,Cotopaxi,Ecuador,South America,Stratovolcano,Eruption Observed,2016,-0.677,-78.436,5911,Andesite / Basaltic Andesite,Subduction Zone / Continental Crust (>25 km)
352080,Tungurahua,Ecuador,South America,Stratovolcano,Eruption Observed,2016,-1.4669999999999999,-78.442,5023,Andesite / Basaltic Andesite,Subduction Zone / Continental Crust (>25 km)
352090,Sangay,Ecuador,South America,Stratovolcano,Eruption Observed,2016,-2.005,-78.34100000000001,5286,Andesite / Basaltic Andesite,Subduction Zone / Continental Crust (>25 km)
353010,Fernandina,Ecuador,South America,Shield,Eruption Observed,2009,-0.37,-91.55,1476,Basalt / Picro-Basalt,Rift Zone / Oceanic Crust (< 15 km)
353020,Wolf,Ecuador,South America,Shield,Eruption Observed,2015,0.02,-91.35,1710,Basalt / Picro-Basalt,Rift Zone / Oceanic Crust (< 15 km)
353040,Alcedo,Ecuador,South America,Shield,Eruption Observed,1993,-0.43,-91.12,1130,Basalt / Picro-Basalt,Rift Zone / Oceanic Crust (< 15 km)
353050,"Negra, Sierra",Ecuador,South America,Shield,Eruption Observed,2005,-0.83,-91.17,1124,Basalt / Picro-Basalt,Rift Zone / Oceanic Crust (< 15 km)
353060,"Azul, Cerro",Ecuador,South America,Shield,Eruption Observed,2008,-0.92,-91.40799999999999,1640,Basalt / Picro-Basalt,Rift Zone / Oceanic Crust (< 15 km)
353080,Marchena,Ecuador,South America,Shield,Eruption Observed,1991,0.33,-90.47,343,Basalt / Picro-Basalt,Rift Zone / Oceanic Crust (< 15 km)
354006,Sabancaya,Peru,South America,Stratovolcano(es),Eruption Observed,2016,-15.78,-71.85,5967,Andesite / Basaltic Andesite,Subduction Zone / Continental Crust (>25 km)
354010,"Misti, El",Peru,South America,Stratovolcano,Eruption Observed,1985,-16.294,-71.40899999999999,5822,Andesite / Basaltic Andesite,Subduction Zone / Continental Crust (>25 km)
354020,Ubinas,Peru,South America,Stratovolcano,Eruption Observed,2016,-16.355,-70.903,5672,Andesite / Basaltic Andesite,Subduction Zone / Continental Crust (>25 km)
355040,Irruputuncu,Chile-Bolivia,South America,Stratovolcano,Eruption Observed,1995,-20.73,-68.55,5163,Andesite / Basaltic Andesite,Subduction Zone / Continental Crust (>25 km)
355100,Lascar,Chile,South America,Stratovolcano(es),Eruption Observed,2016,-23.37,-67.73,5592,Andesite / Basaltic Andesite,Subduction Zone / Continental Crust (>25 km)
357010,Tupungatito,Chile-Argentina,South America,Stratovolcano,Eruption Observed,1987,-33.425,-69.797,5660,Andesite / Basaltic Andesite,Subduction Zone / Continental Crust (>25 km)
357040,Planchon-Peteroa,Chile,South America,Stratovolcano(es),Eruption Observed,2011,-35.223,-70.568,3977,Andesite / Basaltic Andesite,Subduction Zone / Continental Crust (>25 km)
357060,"Azul, Cerro",Chile,South America,Stratovolcano,Eruption Observed,1967,-35.653,-70.76100000000001,3788,Dacite,Subduction Zone / Continental Crust (>25 km)
357070,"Chillan, Nevados de",Chile,South America,Stratovolcano,Eruption Observed,2016,-36.863,-71.377,3212,Andesite / Basaltic Andesite,Subduction Zone / Continental Crust (>25 km)
357090,Copahue,Chile-Argentina,South America,Stratovolcano,Eruption Observed,2016,-37.856,-71.183,2953,Trachybasalt / Tephrite Basanite,Subduction Zone / Continental Crust (>25 km)
357091,Callaqui,Chile,South America,Stratovolcano,Eruption Observed,1980,-37.92,-71.45,3164,Andesite / Basaltic Andesite,Subduction Zone / Continental Crust (>25 km)
357100,Lonquimay,Chile,South America,Stratovolcano,Eruption Observed,1990,-38.379,-71.586,2832,Andesite / Basaltic Andesite,Subduction Zone / Continental Crust (>25 km)
357110,Llaima,Chile,South America,Stratovolcano,Eruption Observed,2009,-38.692,-71.729,3125,Basalt / Picro-Basalt,Subduction Zone / Continental Crust (>25 km)
357120,Villarrica,Chile,South America,Stratovolcano,Eruption Observed,2016,-39.42,-71.93,2847,Basalt / Picro-Basalt,Subduction Zone / Continental Crust (>25 km)
357140,Carrán-Los Venados,Chile,South America,Pyroclastic cone(s),Eruption Observed,1979,-40.35,-72.07,1114,Basalt / Picro-Basalt,Subduction Zone / Continental Crust (>25 km)
357150,Puyehue-Cordon Caulle,Chile,South America,Stratovolcano,Eruption Observed,2012,-40.59,-72.117,2236,Andesite / Basaltic Andesite,Subduction Zone / Continental Crust (>25 km)
358020,Calbuco,Chile,South America,Stratovolcano,Eruption Observed,2015,-41.33,-72.618,1974,Andesite / Basaltic Andesite,Subduction Zone / Continental Crust (>25 km)
358041,Chaiten,Chile,South America,Caldera,Eruption Observed,2011,-42.833,-72.646,1122,Rhyolite,Subduction Zone / Continental Crust (>25 km)
358057,"Hudson, Cerro",Chile,South America,Stratovolcano,Eruption Observed,2011,-45.9,-72.97,1905,Basalt / Picro-Basalt,Subduction Zone / Continental Crust (>25 km)
358059,Arenales,Chile,South America,Stratovolcano,Eruption Observed,1979,-47.2,-73.48,3437,Dacite,Subduction Zone / Continental Crust (>25 km)
358060,Lautaro,Chile,South America,Stratovolcano,Eruption Observed,1979,-49.02,-73.55,3607,Dacite,Subduction Zone / Continental Crust (>25 km)
358061,Viedma,Argentina,South America,Subglacial,Eruption Observed,1988,-49.358000000000004,-73.28,1500,Dacite,Subduction Zone / Continental Crust (>25 km)
360050,Soufrière Hills,United Kingdom,West Indies,Stratovolcano,Eruption Observed,2013,16.72,-62.18,915,Andesite / Basaltic Andesite,Subduction Zone / Oceanic Crust (< 15 km)
360060,Soufriere Guadeloupe,France,West Indies,Stratovolcano,Eruption Observed,1977,16.044,-61.663999999999994,1467,Andesite / Basaltic Andesite,Subduction Zone / Oceanic Crust (< 15 km)
360101,"Watt, Morne",Dominica,West Indies,Stratovolcano(es),Eruption Observed,1997,15.307,-61.305,1224,Andesite / Basaltic Andesite,Subduction Zone / Oceanic Crust (< 15 km)
360150,Soufrière St. Vincent,Saint Vincent and the Grenadines,West Indies,Stratovolcano,Eruption Observed,1979,13.33,-61.18,1220,Andesite / Basaltic Andesite,Subduction Zone / Oceanic Crust (< 15 km)
360160,Kick 'em Jenny,Grenada,West Indies,Submarine,Eruption Observed,2015,12.3,-61.64,-185,Basalt / Picro-Basalt,Subduction Zone / Oceanic Crust (< 15 km)
372010,Vestmannaeyjar,Iceland,Iceland and Arctic Ocean,Submarine,Eruption Observed,1973,63.416000000000004,-20.266,283,Basalt / Picro-Basalt,Rift Zone / Oceanic Crust (< 15 km)
372020,Eyjafjallajokull,Iceland,Iceland and Arctic Ocean,Stratovolcano,Eruption Observed,2010,63.633,-19.633,1651,Basalt / Picro-Basalt,Rift Zone / Oceanic Crust (< 15 km)
372070,Hekla,Iceland,Iceland and Arctic Ocean,Stratovolcano,Eruption Observed,2000,63.983000000000004,-19.666,1490,Andesite / Basaltic Andesite,Rift Zone / Oceanic Crust (< 15 km)
373010,Grimsvotn,Iceland,Iceland and Arctic Ocean,Caldera,Eruption Observed,2011,64.416,-17.316,1719,Basalt / Picro-Basalt,Rift Zone / Oceanic Crust (< 15 km)
373030,Bardarbunga,Iceland,Iceland and Arctic Ocean,Stratovolcano,Eruption Observed,2015,64.633,-17.516,2000,Basalt / Picro-Basalt,Rift Zone / Oceanic Crust (< 15 km)
373050,Kverkfjoll,Iceland,Iceland and Arctic Ocean,Stratovolcano,Eruption Observed,1968,64.653,-16.647000000000002,1930,Basalt / Picro-Basalt,Rift Zone / Oceanic Crust (< 15 km)
373080,Krafla,Iceland,Iceland and Arctic Ocean,Caldera,Eruption Observed,1984,65.75,-16.25,800,Basalt / Picro-Basalt,Rift Zone / Oceanic Crust (< 15 km)
376010,Jan Mayen,Norway,Iceland and Arctic Ocean,Stratovolcano,Eruption Observed,1985,71.087,-8.146,2085,Basalt / Picro-Basalt,Rift Zone / Oceanic Crust (< 15 km)
377020,East Gakkel Ridge at 85°E,Undersea Features,Iceland and Arctic Ocean,Submarine,Evidence Credible,1999,85.60799999999999,85.25,-3800,Basalt / Picro-Basalt,Rift Zone / Oceanic Crust (< 15 km)
382050,Terceira,Portugal,Atlantic Ocean,Stratovolcano(es),Eruption Observed,2000,38.73,-27.32,1023,Basalt / Picro-Basalt,Rift Zone / Oceanic Crust (< 15 km)
383010,La Palma,Spain,Atlantic Ocean,Stratovolcano(es),Eruption Observed,1971,28.57,-17.83,2426,Trachybasalt / Tephrite Basanite,Intraplate / Oceanic Crust (< 15 km)
383020,Hierro,Spain,Atlantic Ocean,Shield,Eruption Observed,2012,27.73,-18.03,1500,Trachybasalt / Tephrite Basanite,Intraplate / Oceanic Crust (< 15 km)
384010,Fogo,Cape Verde,Atlantic Ocean,Stratovolcano,Eruption Observed,2015,14.95,-24.35,2829,Foidite,Intraplate / Intermediate Crust (15-25 km)
385052,Unnamed,Undersea Features,Atlantic Ocean,Submarine,Eruption Observed,2002,-32.958,-5.22,0,Basalt / Picro-Basalt,Intraplate / Oceanic Crust (< 15 km)
386011,Nightingale Island,United Kingdom,Atlantic Ocean,Stratovolcano,Eruption Observed,2004,-37.42,-12.48,365,Trachyte / Trachydacite,Rift Zone / Oceanic Crust (< 15 km)
390020,Erebus,Antarctica,Antarctica,Stratovolcano,Eruption Observed,2016,-77.53,167.17,3794,Phonolite,Intraplate / Continental Crust (>25 km)
390030,Deception Island,Antarctica,Antarctica,Caldera,Eruption Observed,1970,-63.001000000000005,-60.652,602,Basalt / Picro-Basalt,Intraplate / Continental Crust (>25 km)
390070,Southern Thule,United Kingdom,Antarctica,Stratovolcano(es),Eruption Observed,1975,-59.442,-27.225,1075,Andesite / Basaltic Andesite,Subduction Zone / Oceanic Crust (< 15 km)
390080,Bristol Island,United Kingdom,Antarctica,Stratovolcano,Eruption Observed,2016,-59.016999999999996,-26.533,1100,Basalt / Picro-Basalt,Subduction Zone / Oceanic Crust (< 15 km)
390081,Montagu Island,United Kingdom,Antarctica,Shield,Eruption Observed,2007,-58.445,-26.374000000000002,1370,Basalt / Picro-Basalt,Subduction Zone / Oceanic Crust (< 15 km)
390090,Saunders,United Kingdom,Antarctica,Stratovolcano,Eruption Observed,2015,-57.8,-26.483,843,Basalt / Picro-Basalt,Subduction Zone / Oceanic Crust (< 15 km)
390130,Zavodovski,United Kingdom,Antarctica,Stratovolcano,Eruption Observed,2016,-56.3,-27.57,551,Basalt / Picro-Basalt,Subduction Zone / Oceanic Crust (< 15 km)
